{
    "links": {
        "self": "http://www.neowsapp.com/rest/v1/neo/3092268?api_key=iIulBulltgU6a56xZRHN4H3l9WmuAYTsLGpBGhQ2"
    },
    "id": "3092268",
    "neo_reference_id": "3092268",
    "name": "(2000 PH8)",
    "designation": "2000 PH8",
    "nasa_jpl_url": "http://ssd.jpl.nasa.gov/sbdb.cgi?sstr=3092268",
    "absolute_magnitude_h": 24.3,
    "estimated_diameter": {
        "kilometers": {
            "estimated_diameter_min": 0.0366906138,
            "estimated_diameter_max": 0.0820427065
        },
        "meters": {
            "estimated_diameter_min": 36.6906137531,
            "estimated_diameter_max": 82.0427064882
        },
        "miles": {
            "estimated_diameter_min": 0.0227984834,
            "estimated_diameter_max": 0.0509789586
        },
        "feet": {
            "estimated_diameter_min": 120.3760332259,
            "estimated_diameter_max": 269.1689931548
        }
    },
    "is_potentially_hazardous_asteroid": false,
    "close_approach_data": [
        {
            "close_approach_date": "2000-07-01",
            "close_approach_date_full": "2000-Jul-01 15:52",
            "epoch_date_close_approach": 962466720000,
            "relative_velocity": {
                "kilometers_per_second": "5.1850456707",
                "kilometers_per_hour": "18666.1644145838",
                "miles_per_hour": "11598.4286608285"
            },
            "miss_distance": {
                "astronomical": "0.085891525",
                "lunar": "33.411803225",
                "kilometers": "12849189.19105175",
                "miles": "7984115.93494415"
            },
            "orbiting_body": "Earth"
        }
    ],
    "orbital_data": {
        "orbit_id": "11",
        "orbit_determination_date": "2017-04-06 09:16:56",
        "first_observation_date": "2000-08-03",
        "last_observation_date": "2000-08-09",
        "data_arc_in_days": 6,
        "observations_used": 21,
        "orbit_uncertainty": "8",
        "minimum_orbit_intersection": ".0854402",
        "jupiter_tisserand_invariant": "3.694",
        "epoch_osculation": "2451762.5",
        "eccentricity": ".4523756214414378",
        "semi_major_axis": "2.011594735763941",
        "inclination": "3.011141918897367",
        "ascending_node_longitude": "290.2312298373519",
        "orbital_period": "1042.0994399766",
        "perihelion_distance": "1.101598317084403",
        "perihelion_argument": "347.4211310750532",
        "aphelion_distance": "2.921591154443478",
        "perihelion_time": "2451725.117158420584",
        "mean_anomaly": "12.9141447085817",
        "mean_motion": ".345456475831216",
        "equinox": "J2000",
        "orbit_class": {
            "orbit_class_type": "AMO",
            "orbit_class_description": "Near-Earth asteroid orbits similar to that of 1221 Amor",
            "orbit_class_range": "1.017 AU < q (perihelion) < 1.3 AU"
        }
    },
    "is_sentry_object": false
}